{"type":"FeatureCollection", "features": [
{"type":"Feature","geometry":{"type":"Polygon","coordinates":[[[-75.579,-1.551],[-75.6,-1.506],[-75.712,-1.457],[-75.892,-1.339],[-75.946,-1.354],[-76.11,-1.274],[-76.164,-1.298],[-76.335,-1.304],[-76.444,-1.268],[-76.525,-1.196],[-76.513,-1.061],[-76.605,-1.071],[-76.727,-1.03],[-76.88,-1.065],[-76.907,-1.114],[-77.039,-1.097],[-77.07,-1.012],[-77.409,-1.08],[-77.565,-1.153],[-77.69,-1.144],[-77.891,-1.241],[-77.951,-1.206],[-78.064,-1.241],[-78.122,-1.22],[-78.117,-1.326],[-78.175,-1.445],[-78.063,-1.535],[-78.029,-1.661],[-77.919,-1.662],[-77.818,-1.924],[-77.711,-2.024],[-77.629,-2.041],[-77.343,-2.165],[-77.094,-2.336],[-76.992,-2.515],[-76.918,-2.565],[-76.738,-2.562],[-76.696,-2.611],[-76.641,-2.593],[-76.052,-2.157],[-75.87,-1.938],[-75.579,-1.551]]]},"properties":{"provincia":"Pastaza"}},
{"type":"Feature","geometry":{"type":"Polygon","coordinates":[[[-77.559,0.652],[-77.696,0.753],[-77.674,0.827],[-77.759,0.846],[-77.831,0.806],[-77.989,0.857],[-78.195,0.949],[-78.302,1.188],[-78.391,1.16],[-78.496,1.202],[-78.498,1.08],[-78.544,1.029],[-78.535,0.932],[-78.453,0.887],[-78.327,0.827],[-78.221,0.74],[-78.139,0.62],[-78.089,0.488],[-78.007,0.477],[-77.916,0.404],[-77.81,0.373],[-77.811,0.42],[-77.659,0.606],[-77.559,0.652]]]},"properties":{"provincia":"Carchi"}},
{"type":"Feature","geometry":{"type":"Polygon","coordinates":[[[-79.432,-4.743],[-79.334,-4.616],[-79.283,-4.48],[-79.208,-4.509],[-79.114,-4.415],[-79.106,-4.191],[-79.163,-4.109],[-79.125,-3.88],[-79.194,-3.727],[-79.098,-3.625],[-79.188,-3.446],[-79.286,-3.472],[-79.304,-3.366],[-79.461,-3.338],[-79.431,-3.467],[-79.478,-3.521],[-79.368,-3.638],[-79.441,-3.812],[-79.568,-3.797],[-79.607,-3.753],[-79.706,-3.828],[-79.811,-3.845],[-79.947,-3.832],[-80.015,-3.874],[-80.133,-3.895],[-80.296,-4.022],[-80.433,-4.002],[-80.476,-4.089],[-80.444,-4.213],[-80.307,-4.215],[-80.445,-4.387],[-80.396,-4.485],[-80.314,-4.458],[-80.187,-4.346],[-80.087,-4.301],[-79.993,-4.377],[-79.911,-4.393],[-79.805,-4.494],[-79.612,-4.451],[-79.507,-4.515],[-79.432,-4.743]]]},"properties":{"provincia":"Loja"}},
{"type":"Feature","geometry":{"type":"Polygon","coordinates":[[[-79.432,-4.743],[-79.408,-4.827],[-79.306,-4.904],[-79.26,-4.973],[-79.154,-4.962],[-79.021,-5.011],[-78.985,-4.904],[-78.921,-4.86],[-78.897,-4.729],[-78.828,-4.644],[-78.673,-4.59],[-78.63,-4.416],[-78.655,-4.357],[-78.588,-4.143],[-78.542,-4.068],[-78.562,-3.979],[-78.489,-3.919],[-78.411,-3.778],[-78.424,-3.689],[-78.37,-3.526],[-78.628,-3.535],[-78.68,-3.584],[-78.825,-3.549],[-78.882,-3.423],[-78.945,-3.344],[-79.028,-3.392],[-79.064,-3.513],[-79.04,-3.584],[-79.098,-3.625],[-79.194,-3.727],[-79.125,-3.88],[-79.163,-4.109],[-79.106,-4.191],[-79.114,-4.415],[-79.208,-4.509],[-79.283,-4.48],[-79.334,-4.616],[-79.432,-4.743]]]},"properties":{"provincia":"Zamora Chinchipe"}},
{"type":"Feature","geometry":{"type":"MultiPolygon","coordinates":[[[[-80.004,-3.328],[-79.991,-3.285],[-80.035,-3.209],[-80.08,-3.307],[-80.225,-3.346],[-80.199,-3.412],[-80.072,-3.406],[-80.004,-3.328]]],[[[-79.461,-3.338],[-79.653,-3.315],[-79.593,-3.156],[-79.76,-3.071],[-79.86,-3.048],[-79.908,-3.168],[-79.963,-3.198],[-79.98,-3.283],[-80.034,-3.406],[-80.227,-3.453],[-80.18,-3.655],[-80.187,-3.78],[-80.133,-3.895],[-80.015,-3.874],[-79.947,-3.832],[-79.811,-3.845],[-79.706,-3.828],[-79.607,-3.753],[-79.568,-3.797],[-79.441,-3.812],[-79.368,-3.638],[-79.478,-3.521],[-79.431,-3.467],[-79.461,-3.338]]]]},"properties":{"provincia":"El Oro"}},
{"type":"Feature","geometry":{"type":"Polygon","coordinates":[[[-78.496,1.202],[-78.644,1.279],[-78.693,1.374],[-78.834,1.406],[-78.886,1.253],[-79.002,1.202],[-79.06,1.216],[-79.15,1.11],[-79.436,1.069],[-79.548,1.002],[-79.742,0.964],[-79.806,0.902],[-79.959,0.827],[-80.058,0.822],[-80.105,0.688],[-80.017,0.622],[-80.007,0.541],[-80.061,0.473],[-79.976,0.364],[-79.947,0.265],[-79.832,0.329],[-79.676,0.248],[-79.713,0.191],[-79.575,0.127],[-79.494,0.087],[-79.363,0.082],[-79.315,0.17],[-79.362,0.243],[-79.275,0.321],[-79.156,0.354],[-79.044,0.31],[-78.959,0.37],[-78.849,0.381],[-78.792,0.42],[-78.649,0.388],[-78.559,0.509],[-78.453,0.548],[-78.433,0.61],[-78.53,0.765],[-78.456,0.79],[-78.453,0.887],[-78.535,0.932],[-78.544,1.029],[-78.498,1.08],[-78.496,1.202]]]},"properties":{"provincia":"Esmeraldas"}},
{"type":"Feature","geometry":{"type":"Polygon","coordinates":[[[-78.453,0.887],[-78.456,0.79],[-78.53,0.765],[-78.433,0.61],[-78.453,0.548],[-78.559,0.509],[-78.649,0.388],[-78.792,0.42],[-78.849,0.381],[-78.959,0.37],[-79.044,0.31],[-79.156,0.354],[-79.275,0.321],[-79.07,0.311],[-79.014,0.238],[-78.936,0.212],[-78.839,0.247],[-78.716,0.221],[-78.483,0.231],[-78.408,0.258],[-78.263,0.133],[-78.173,0.128],[-78.092,0.179],[-77.96,0.169],[-77.836,0.269],[-77.81,0.373],[-77.916,0.404],[-78.007,0.477],[-78.089,0.488],[-78.139,0.62],[-78.221,0.74],[-78.327,0.827],[-78.453,0.887]]]},"properties":{"provincia":"Imbabura"}},
{"type":"Feature","geometry":{"type":"Polygon","coordinates":[[[-77.81,0.373],[-77.836,0.269],[-77.96,0.169],[-77.972,0.133],[-77.843,0.032],[-77.78,0.027],[-77.775,-0.066],[-77.584,-0.096],[-77.475,-0.016],[-77.451,-0.13],[-77.363,-0.142],[-77.296,-0.053],[-77.193,-0.093],[-77.046,-0.106],[-76.96,-0.062],[-76.901,-0.081],[-76.763,-0.256],[-76.717,-0.34],[-76.604,-0.429],[-76.548,-0.409],[-76.466,-0.483],[-76.371,-0.517],[-76.256,-0.444],[-76.069,-0.445],[-76.04,-0.509],[-75.955,-0.56],[-75.919,-0.505],[-75.941,-0.415],[-75.834,-0.436],[-75.737,-0.414],[-75.64,-0.448],[-75.501,-0.554],[-75.242,-0.638],[-75.233,-0.51],[-75.369,-0.429],[-75.455,-0.304],[-75.465,-0.237],[-75.536,-0.149],[-75.502,-0.103],[-75.391,-0.155],[-75.388,-0.087],[-75.562,-0.008],[-75.622,0.055],[-75.746,0.048],[-75.867,0.133],[-75.993,0.308],[-76.123,0.388],[-76.218,0.391],[-76.258,0.446],[-76.397,0.39],[-76.394,0.261],[-76.583,0.227],[-76.722,0.293],[-76.836,0.247],[-76.943,0.279],[-77.081,0.287],[-77.115,0.373],[-77.285,0.365],[-77.329,0.393],[-77.522,0.418],[-77.522,0.522],[-77.482,0.653],[-77.559,0.652],[-77.659,0.606],[-77.811,0.42],[-77.81,0.373]]]},"properties":{"provincia":"Sucumbios"}},
{"type":"Feature","geometry":{"type":"Polygon","coordinates":[[[-80.561,-2.508],[-80.496,-2.503],[-80.457,-2.412],[-80.239,-2.314],[-80.242,-2.112],[-80.317,-2.068],[-80.365,-1.991],[-80.445,-1.954],[-80.509,-1.924],[-80.58,-1.806],[-80.59,-1.681],[-80.637,-1.666],[-80.81,-1.694],[-80.726,-1.92],[-80.77,-2.129],[-80.926,-2.219],[-80.872,-2.324],[-80.772,-2.389],[-80.674,-2.409],[-80.561,-2.508]]]},"properties":{"provincia":"Santa Elena"}},
{"type":"Feature","geometry":{"type":"Polygon","coordinates":[[[-79.575,0.127],[-79.626,0.053],[-79.61,-0.052],[-79.512,-0.164],[-79.411,-0.19],[-79.405,-0.403],[-79.464,-0.47],[-79.469,-0.548],[-79.359,-0.54],[-79.349,-0.688],[-79.299,-0.695],[-79.13,-0.543],[-79.092,-0.553],[-79,-0.505],[-79.014,-0.432],[-78.942,-0.338],[-78.834,-0.343],[-78.748,-0.239],[-78.961,-0.103],[-79.025,-0.119],[-79.142,-0.087],[-79.114,-0.034],[-79.246,0.014],[-79.369,0.027],[-79.363,0.082],[-79.494,0.087],[-79.575,0.127]]]},"properties":{"provincia":"Santo Domingo de los Tsáchilas"}},
{"type":"Feature","geometry":{"type":"Polygon","coordinates":[[[-79.363,0.082],[-79.369,0.027],[-79.246,0.014],[-79.114,-0.034],[-79.142,-0.087],[-79.025,-0.119],[-78.961,-0.103],[-78.748,-0.239],[-78.834,-0.343],[-78.942,-0.338],[-78.812,-0.534],[-78.741,-0.554],[-78.696,-0.652],[-78.605,-0.593],[-78.501,-0.635],[-78.413,-0.711],[-78.338,-0.659],[-78.239,-0.464],[-78.249,-0.399],[-78.186,-0.283],[-78.192,-0.219],[-77.93,-0.091],[-77.941,-0.049],[-77.843,0.032],[-77.972,0.133],[-77.96,0.169],[-78.092,0.179],[-78.173,0.128],[-78.263,0.133],[-78.408,0.258],[-78.483,0.231],[-78.716,0.221],[-78.839,0.247],[-78.936,0.212],[-79.014,0.238],[-79.07,0.311],[-79.275,0.321],[-79.362,0.243],[-79.315,0.17],[-79.363,0.082]]]},"properties":{"provincia":"Pichincha"}},
{"type":"Feature","geometry":{"type":"Polygon","coordinates":[[[-79.947,0.265],[-80.041,0.355],[-80.033,0.178],[-80.071,0.057],[-80.136,-0.038],[-80.297,-0.183],[-80.378,-0.228],[-80.406,-0.305],[-80.496,-0.404],[-80.436,-0.562],[-80.509,-0.745],[-80.536,-0.859],[-80.59,-0.93],[-80.828,-0.963],[-80.911,-1.061],[-80.847,-1.214],[-80.74,-1.353],[-80.767,-1.469],[-80.82,-1.518],[-80.85,-1.622],[-80.81,-1.694],[-80.637,-1.666],[-80.59,-1.681],[-80.58,-1.806],[-80.509,-1.924],[-80.445,-1.954],[-80.429,-1.801],[-80.326,-1.697],[-80.239,-1.688],[-80.205,-1.576],[-80.194,-1.43],[-80.006,-1.236],[-79.987,-1.137],[-79.926,-1.149],[-79.849,-1.09],[-79.737,-0.895],[-79.655,-0.903],[-79.61,-0.856],[-79.601,-0.761],[-79.469,-0.548],[-79.464,-0.47],[-79.405,-0.403],[-79.411,-0.19],[-79.512,-0.164],[-79.61,-0.052],[-79.626,0.053],[-79.575,0.127],[-79.713,0.191],[-79.676,0.248],[-79.832,0.329],[-79.947,0.265]]]},"properties":{"provincia":"Manabi"}},
{"type":"Feature","geometry":{"type":"Polygon","coordinates":[[[-79.098,-3.625],[-79.04,-3.584],[-79.064,-3.513],[-79.028,-3.392],[-78.945,-3.344],[-78.93,-3.28],[-78.824,-3.234],[-78.761,-3.136],[-78.7,-3.115],[-78.621,-2.912],[-78.564,-2.7],[-78.445,-2.652],[-78.441,-2.595],[-78.568,-2.564],[-78.614,-2.635],[-78.715,-2.688],[-78.775,-2.674],[-78.814,-2.812],[-78.905,-2.841],[-79.047,-2.689],[-79.086,-2.732],[-79.207,-2.726],[-79.272,-2.568],[-79.357,-2.567],[-79.5,-2.635],[-79.54,-2.755],[-79.508,-2.863],[-79.605,-2.921],[-79.603,-2.979],[-79.714,-2.984],[-79.76,-3.071],[-79.593,-3.156],[-79.653,-3.315],[-79.461,-3.338],[-79.304,-3.366],[-79.286,-3.472],[-79.188,-3.446],[-79.098,-3.625]]]},"properties":{"provincia":"Azuay"}},
{"type":"Feature","geometry":{"type":"Polygon","coordinates":[[[-78.568,-2.564],[-78.571,-2.554],[-78.669,-2.452],[-78.774,-2.435],[-78.805,-2.38],[-78.908,-2.409],[-79.008,-2.376],[-79.137,-2.236],[-79.272,-2.404],[-79.42,-2.346],[-79.427,-2.421],[-79.357,-2.567],[-79.272,-2.568],[-79.207,-2.726],[-79.086,-2.732],[-79.047,-2.689],[-78.905,-2.841],[-78.814,-2.812],[-78.775,-2.674],[-78.715,-2.688],[-78.614,-2.635],[-78.568,-2.564]]]},"properties":{"provincia":"Cañar"}},
{"type":"Feature","geometry":{"type":"MultiPolygon","coordinates":[[[[-79.928,-2.792],[-79.899,-2.745],[-80.036,-2.673],[-80.214,-2.745],[-80.259,-2.861],[-80.249,-3.03],[-80.125,-3.019],[-80.096,-2.975],[-80.151,-2.878],[-80.04,-2.857],[-79.928,-2.792]]],[[[-79.86,-2.428],[-79.85,-2.292],[-79.901,-2.296],[-80.007,-2.421],[-79.952,-2.501],[-79.881,-2.531],[-79.86,-2.428]]],[[[-79.76,-3.071],[-79.714,-2.984],[-79.603,-2.979],[-79.605,-2.921],[-79.508,-2.863],[-79.54,-2.755],[-79.5,-2.635],[-79.357,-2.567],[-79.427,-2.421],[-79.42,-2.346],[-79.272,-2.404],[-79.137,-2.236],[-79.126,-2.193],[-79.195,-2.132],[-79.312,-2.076],[-79.374,-1.969],[-79.524,-1.878],[-79.661,-1.915],[-79.824,-1.705],[-79.873,-1.544],[-79.869,-1.438],[-79.766,-1.267],[-79.74,-1.193],[-79.614,-1.071],[-79.559,-1.067],[-79.509,-0.957],[-79.514,-0.849],[-79.61,-0.856],[-79.655,-0.903],[-79.737,-0.895],[-79.849,-1.09],[-79.926,-1.149],[-79.987,-1.137],[-80.006,-1.236],[-80.194,-1.43],[-80.205,-1.576],[-80.239,-1.688],[-80.326,-1.697],[-80.429,-1.801],[-80.445,-1.954],[-80.365,-1.991],[-80.317,-2.068],[-80.242,-2.112],[-80.239,-2.314],[-80.457,-2.412],[-80.496,-2.503],[-80.561,-2.508],[-80.463,-2.615],[-80.287,-2.733],[-80.253,-2.645],[-80.129,-2.56],[-80.066,-2.461],[-79.97,-2.238],[-79.835,-2.202],[-79.829,-2.387],[-79.766,-2.515],[-79.694,-2.558],[-79.779,-2.683],[-79.817,-2.861],[-79.852,-2.922],[-79.86,-3.048],[-79.76,-3.071]]]]},"properties":{"provincia":"Guayas"}},
{"type":"Feature","geometry":{"type":"Polygon","coordinates":[[[-79.469,-0.548],[-79.601,-0.761],[-79.61,-0.856],[-79.514,-0.849],[-79.509,-0.957],[-79.559,-1.067],[-79.614,-1.071],[-79.74,-1.193],[-79.766,-1.267],[-79.869,-1.438],[-79.873,-1.544],[-79.824,-1.705],[-79.661,-1.915],[-79.524,-1.878],[-79.374,-1.969],[-79.312,-2.076],[-79.195,-2.132],[-79.263,-1.963],[-79.227,-1.739],[-79.284,-1.606],[-79.256,-1.54],[-79.33,-1.462],[-79.286,-1.385],[-79.358,-1.281],[-79.287,-1.198],[-79.335,-1.117],[-79.297,-1.017],[-79.315,-0.952],[-79.148,-0.723],[-79.092,-0.553],[-79.13,-0.543],[-79.299,-0.695],[-79.349,-0.688],[-79.359,-0.54],[-79.469,-0.548]]]},"properties":{"provincia":"Los Ríos"}},
{"type":"Feature","geometry":{"type":"Polygon","coordinates":[[[-79.092,-0.553],[-79.148,-0.723],[-79.315,-0.952],[-79.297,-1.017],[-79.335,-1.117],[-79.287,-1.198],[-79.094,-1.153],[-78.986,-1.215],[-78.878,-1.194],[-78.742,-1.131],[-78.669,-1.15],[-78.577,-1.12],[-78.538,-1.055],[-78.466,-1.08],[-78.411,-0.994],[-78.425,-0.896],[-78.395,-0.847],[-78.413,-0.711],[-78.501,-0.635],[-78.605,-0.593],[-78.696,-0.652],[-78.741,-0.554],[-78.812,-0.534],[-78.942,-0.338],[-79.014,-0.432],[-79,-0.505],[-79.092,-0.553]]]},"properties":{"provincia":"Cotopaxi"}},
{"type":"Feature","geometry":{"type":"Polygon","coordinates":[[[-79.126,-2.193],[-79.032,-2.12],[-79.008,-1.913],[-79.013,-1.778],[-78.879,-1.746],[-78.846,-1.655],[-78.901,-1.587],[-78.883,-1.468],[-78.94,-1.35],[-78.878,-1.194],[-78.986,-1.215],[-79.094,-1.153],[-79.287,-1.198],[-79.358,-1.281],[-79.286,-1.385],[-79.33,-1.462],[-79.256,-1.54],[-79.284,-1.606],[-79.227,-1.739],[-79.263,-1.963],[-79.195,-2.132],[-79.126,-2.193]]]},"properties":{"provincia":"Bolívar"}},
{"type":"Feature","geometry":{"type":"Polygon","coordinates":[[[-78.122,-1.22],[-78.224,-1.141],[-78.343,-1.104],[-78.333,-1.035],[-78.411,-0.994],[-78.466,-1.08],[-78.538,-1.055],[-78.577,-1.12],[-78.669,-1.15],[-78.742,-1.131],[-78.878,-1.194],[-78.94,-1.35],[-78.883,-1.468],[-78.766,-1.436],[-78.702,-1.493],[-78.533,-1.479],[-78.494,-1.431],[-78.36,-1.516],[-78.261,-1.5],[-78.175,-1.445],[-78.117,-1.326],[-78.122,-1.22]]]},"properties":{"provincia":"Tungurahua"}},
{"type":"Feature","geometry":{"type":"Polygon","coordinates":[[[-78.571,-2.554],[-78.513,-2.537],[-78.468,-2.42],[-78.543,-2.341],[-78.498,-2.235],[-78.514,-2.139],[-78.44,-2.095],[-78.489,-1.983],[-78.402,-1.854],[-78.461,-1.758],[-78.367,-1.637],[-78.36,-1.516],[-78.494,-1.431],[-78.533,-1.479],[-78.702,-1.493],[-78.766,-1.436],[-78.883,-1.468],[-78.901,-1.587],[-78.846,-1.655],[-78.879,-1.746],[-79.013,-1.778],[-79.008,-1.913],[-79.032,-2.12],[-79.126,-2.193],[-79.137,-2.236],[-79.008,-2.376],[-78.908,-2.409],[-78.805,-2.38],[-78.774,-2.435],[-78.669,-2.452],[-78.571,-2.554]]]},"properties":{"provincia":"Chimborazo"}},
{"type":"Feature","geometry":{"type":"Polygon","coordinates":[[[-78.175,-1.445],[-78.261,-1.5],[-78.36,-1.516],[-78.367,-1.637],[-78.461,-1.758],[-78.402,-1.854],[-78.489,-1.983],[-78.44,-2.095],[-78.514,-2.139],[-78.498,-2.235],[-78.543,-2.341],[-78.468,-2.42],[-78.513,-2.537],[-78.571,-2.554],[-78.568,-2.564],[-78.441,-2.595],[-78.445,-2.652],[-78.564,-2.7],[-78.621,-2.912],[-78.7,-3.115],[-78.761,-3.136],[-78.824,-3.234],[-78.93,-3.28],[-78.945,-3.344],[-78.882,-3.423],[-78.825,-3.549],[-78.68,-3.584],[-78.628,-3.535],[-78.37,-3.526],[-78.336,-3.378],[-78.253,-3.407],[-78.211,-3.507],[-78.144,-3.463],[-78.195,-3.364],[-77.957,-3.089],[-77.825,-2.986],[-77.506,-2.878],[-77.221,-2.79],[-76.696,-2.611],[-76.738,-2.562],[-76.918,-2.565],[-76.992,-2.515],[-77.094,-2.336],[-77.343,-2.165],[-77.629,-2.041],[-77.711,-2.024],[-77.818,-1.924],[-77.919,-1.662],[-78.029,-1.661],[-78.063,-1.535],[-78.175,-1.445]]]},"properties":{"provincia":"Morona Santiago"}},
{"type":"Feature","geometry":{"type":"Polygon","coordinates":[[[-77.07,-1.012],[-77.046,-0.913],[-77.145,-0.892],[-77.206,-0.811],[-77.518,-0.947],[-77.536,-0.795],[-77.494,-0.697],[-77.614,-0.538],[-77.515,-0.485],[-77.438,-0.518],[-77.386,-0.49],[-77.322,-0.361],[-77.253,-0.307],[-77.292,-0.184],[-77.296,-0.053],[-77.363,-0.142],[-77.451,-0.13],[-77.475,-0.016],[-77.584,-0.096],[-77.775,-0.066],[-77.78,0.027],[-77.843,0.032],[-77.941,-0.049],[-77.93,-0.091],[-78.192,-0.219],[-78.186,-0.283],[-78.249,-0.399],[-78.239,-0.464],[-78.338,-0.659],[-78.413,-0.711],[-78.395,-0.847],[-78.425,-0.896],[-78.411,-0.994],[-78.333,-1.035],[-78.343,-1.104],[-78.224,-1.141],[-78.122,-1.22],[-78.064,-1.241],[-77.951,-1.206],[-77.891,-1.241],[-77.69,-1.144],[-77.565,-1.153],[-77.409,-1.08],[-77.07,-1.012]]]},"properties":{"provincia":"Napo"}},
{"type":"Feature","geometry":{"type":"Polygon","coordinates":[[[-75.579,-1.551],[-75.553,-1.54],[-75.405,-1.025],[-75.362,-0.922],[-75.278,-0.984],[-75.193,-0.972],[-75.242,-0.756],[-75.242,-0.638],[-75.501,-0.554],[-75.64,-0.448],[-75.737,-0.414],[-75.834,-0.436],[-75.941,-0.415],[-75.919,-0.505],[-75.955,-0.56],[-76.04,-0.509],[-76.069,-0.445],[-76.256,-0.444],[-76.371,-0.517],[-76.466,-0.483],[-76.548,-0.409],[-76.604,-0.429],[-76.717,-0.34],[-76.763,-0.256],[-76.901,-0.081],[-76.96,-0.062],[-77.046,-0.106],[-77.193,-0.093],[-77.296,-0.053],[-77.292,-0.184],[-77.253,-0.307],[-77.322,-0.361],[-77.386,-0.49],[-77.438,-0.518],[-77.515,-0.485],[-77.614,-0.538],[-77.494,-0.697],[-77.536,-0.795],[-77.518,-0.947],[-77.206,-0.811],[-77.145,-0.892],[-77.046,-0.913],[-77.07,-1.012],[-77.039,-1.097],[-76.907,-1.114],[-76.88,-1.065],[-76.727,-1.03],[-76.605,-1.071],[-76.513,-1.061],[-76.525,-1.196],[-76.444,-1.268],[-76.335,-1.304],[-76.164,-1.298],[-76.11,-1.274],[-75.946,-1.354],[-75.892,-1.339],[-75.712,-1.457],[-75.6,-1.506],[-75.579,-1.551]]]},"properties":{"provincia":"Orellana"}},
{"type":"Feature","geometry":{"type":"MultiPolygon","coordinates":[[[[-90.424,-1.234],[-90.489,-1.322],[-90.397,-1.343],[-90.357,-1.284],[-90.424,-1.234]]],[[[-89.479,-0.924],[-89.397,-0.874],[-89.358,-0.803],[-89.251,-0.713],[-89.316,-0.679],[-89.425,-0.71],[-89.604,-0.908],[-89.479,-0.924]]],[[[-90.268,-0.507],[-90.415,-0.502],[-90.533,-0.58],[-90.529,-0.698],[-90.373,-0.773],[-90.251,-0.743],[-90.204,-0.68],[-90.183,-0.564],[-90.268,-0.507]]],[[[-91.427,-0.286],[-91.491,-0.267],[-91.654,-0.302],[-91.632,-0.413],[-91.564,-0.49],[-91.437,-0.484],[-91.375,-0.373],[-91.427,-0.286]]],[[[-90.544,-0.318],[-90.614,-0.218],[-90.769,-0.144],[-90.825,-0.17],[-90.862,-0.268],[-90.821,-0.34],[-90.587,-0.382],[-90.544,-0.318]]],[[[-91.256,0.011],[-91.358,0.156],[-91.487,0.102],[-91.545,0.025],[-91.409,-0.04],[-91.359,-0.299],[-91.244,-0.386],[-91.217,-0.468],[-91.075,-0.603],[-91.142,-0.689],[-91.321,-0.704],[-91.504,-0.864],[-91.51,-0.918],[-91.416,-1.002],[-91.201,-1.053],[-90.951,-0.997],[-90.852,-0.907],[-90.8,-0.764],[-90.885,-0.64],[-90.962,-0.578],[-90.945,-0.457],[-91.138,-0.29],[-91.198,-0.179],[-91.191,-0.073],[-91.256,0.011]]]]},"properties":{"provincia":"Galápagos"}}
]}